{"type": "FeatureCollection", "features": [ {"type": "Feature", "properties": {"norad_id": 57401, "name": "TIANMU-1 09", "group": "weather", "lat": -7.412990050196232, "lon": 31.03590812588771, "alt_km": 487.29633495710186, "timestamp": "2025-12-06T18:50:09.814393+00:00", "meta": {"OBJECT_NAME": "TIANMU-1 09", "OBJECT_ID": "2023-101C", "EPOCH": "2025-12-06T06:17:40.957440", "MEAN_MOTION": 15.27941722, "ECCENTRICITY": 0.00068068, "INCLINATION": 97.2827, "RA_OF_ASC_NODE": 29.5719, "ARG_OF_PERICENTER": 101.3684, "MEAN_ANOMALY": 258.8321, "EPHEMERIS_TYPE": 0, "CLASSIFICATION_TYPE": "U", "NORAD_CAT_ID": 57401, "ELEMENT_SET_NO": 999, "REV_AT_EPOCH": 13216, "BSTAR": 0.00045611169, "MEAN_MOTION_DOT": 0.0001238, "MEAN_MOTION_DDOT": 0}, "tle": {"line1": "1 57401U 23101C   25340.26227960  .00012380  00000+0  45611-3 0  9995", "line2": "2 57401  97.2827  29.5719 0006806 101.3684 258.8321 15.27941722132162"}}, "geometry": {"type": "Point", "coordinates": [31.03590812588771, -7.412990050196232]}}, {"type": "Feature", "properties": {"norad_id": 57402, "name": "TIANMU-1 10", "group": "weather", "lat": 14.830568358518912, "lon": -147.13129146194427, "alt_km": 480.4151026208865, "timestamp": "2025-12-06T18:50:09.814402+00:00", "meta": {"OBJECT_NAME": "TIANMU-1 10", "OBJECT_ID": "2023-101D", "EPOCH": "2025-12-06T07:06:54.093024", "MEAN_MOTION": 15.27932786, "ECCENTRICITY": 0.00085341, "INCLINATION": 97.2907, "RA_OF_ASC_NODE": 30.4483, "ARG_OF_PERICENTER": 102.0869, "MEAN_ANOMALY": 258.1328, "EPHEMERIS_TYPE": 0, "CLASSIFICATION_TYPE": "U", "NORAD_CAT_ID": 57402, "ELEMENT_SET_NO": 999, "REV_AT_EPOCH": 13216, "BSTAR": 0.00048822291, "MEAN_MOTION_DOT": 0.0001326, "MEAN_MOTION_DDOT": 0}, "tle": {"line1": "1 57402U 23101D   25340.29645941  .00013260  00000+0  48822-3 0  9997", "line2": "2 57402  97.2907  30.4483 0008534 102.0869 258.1328 15.27932786132164"}}, "geometry": {"type": "Point", "coordinates": [-147.13129146194427, 14.830568358518912]}}, {"type": "Feature", "properties": {"norad_id": 57490, "name": "FENGYUN 3F", "group": "weather", "lat": -37.836518193976055, "lon": -137.66364660732168, "alt_km": 832.3838600033932, "timestamp": "2025-12-06T18:50:09.814412+00:00", "meta": {"OBJECT_NAME": "FENGYUN 3F", "OBJECT_ID": "2023-111A", "EPOCH": "2025-12-06T05:58:21.937728", "MEAN_MOTION": 14.19891007, "ECCENTRICITY": 6.614e-05, "INCLINATION": 98.7094, "RA_OF_ASC_NODE": 48.6468, "ARG_OF_PERICENTER": 89.687, "MEAN_ANOMALY": 270.4382, "EPHEMERIS_TYPE": 0, "CLASSIFICATION_TYPE": "U", "NORAD_CAT_ID": 57490, "ELEMENT_SET_NO": 999, "REV_AT_EPOCH": 12148, "BSTAR": 0.00011772022, "MEAN_MOTION_DOT": 2.06e-06, "MEAN_MOTION_DDOT": 0}, "tle": {"line1": "1 57490U 23111A   25340.24886502  .00000206  00000+0  11772-3 0  9990", "line2": "2 57490  98.7094  48.6468 0000661  89.6870 270.4382 14.19891007121483"}}, "geometry": {"type": "Point", "coordinates": [-137.66364660732168, -37.836518193976055]}}, {"type": "Feature", "properties": {"norad_id": 58584, "name": "ARKTIKA-M 2", "group": "weather", "lat": 15.962933691647029, "lon": -12.773809906276217, "alt_km": 10972.572167088863, "timestamp": "2025-12-06T18:50:09.814424+00:00", "meta": {"OBJECT_NAME": "ARKTIKA-M 2", "OBJECT_ID": "2023-198A", "EPOCH": "2025-12-03T08:34:19.284960", "MEAN_MOTION": 2.00605176, "ECCENTRICITY": 0.68642509, "INCLINATION": 63.2223, "RA_OF_ASC_NODE": 175.9121, "ARG_OF_PERICENTER": 268.1397, "MEAN_ANOMALY": 18.842, "EPHEMERIS_TYPE": 0, "CLASSIFICATION_TYPE": "U", "NORAD_CAT_ID": 58584, "ELEMENT_SET_NO": 999, "REV_AT_EPOCH": 1439, "BSTAR": 0, "MEAN_MOTION_DOT": 2.24e-06, "MEAN_MOTION_DDOT": 0}, "tle": {"line1": "1 58584U 23198A   25337.35716765  .00000224  00000+0  00000+0 0  9999", "line2": "2 58584  63.2223 175.9121 6864250 268.1397  18.8420  2.00605176 14390"}}, "geometry": {"type": "Point", "coordinates": [-12.773809906276217, 15.962933691647029]}}, {"type": "Feature", "properties": {"norad_id": 58645, "name": "TIANMU-1 11", "group": "weather", "lat": 57.356409086107796, "lon": -11.128131260664524, "alt_km": 486.1979177905114, "timestamp": "2025-12-06T18:50:09.814437+00:00", "meta": {"OBJECT_NAME": "TIANMU-1 11", "OBJECT_ID": "2023-205A", "EPOCH": "2025-12-06T07:33:18.522144", "MEAN_MOTION": 15.24483321, "ECCENTRICITY": 0.00085179, "INCLINATION": 97.3603, "RA_OF_ASC_NODE": 0.0515, "ARG_OF_PERICENTER": 336.0617, "MEAN_ANOMALY": 24.0224, "EPHEMERIS_TYPE": 0, "CLASSIFICATION_TYPE": "U", "NORAD_CAT_ID": 58645, "ELEMENT_SET_NO": 999, "REV_AT_EPOCH": 10811, "BSTAR": 0.00041770052, "MEAN_MOTION_DOT": 0.00010208, "MEAN_MOTION_DDOT": 0}, "tle": {"line1": "1 58645U 23205A   25340.31479771  .00010208  00000+0  41770-3 0  9995", "line2": "2 58645  97.3603   0.0515 0008517 336.0617  24.0224 15.24483321108114"}}, "geometry": {"type": "Point", "coordinates": [-11.128131260664524, 57.356409086107796]}}, {"type": "Feature", "properties": {"norad_id": 58646, "name": "TIANMU-1 12", "group": "weather", "lat": -82.18690437493649, "lon": 70.68970326526552, "alt_km": 496.9176476480343, "timestamp": "2025-12-06T18:50:09.814449+00:00", "meta": {"OBJECT_NAME": "TIANMU-1 12", "OBJECT_ID": "2023-205B", "EPOCH": "2025-12-06T05:02:23.781408", "MEAN_MOTION": 15.24395386, "ECCENTRICITY": 0.00063702, "INCLINATION": 97.359, "RA_OF_ASC_NODE": 359.7563, "ARG_OF_PERICENTER": 321.1327, "MEAN_ANOMALY": 38.9451, "EPHEMERIS_TYPE": 0, "CLASSIFICATION_TYPE": "U", "NORAD_CAT_ID": 58646, "ELEMENT_SET_NO": 999, "REV_AT_EPOCH": 10808, "BSTAR": 0.0004578296, "MEAN_MOTION_DOT": 0.00011162, "MEAN_MOTION_DDOT": 0}, "tle": {"line1": "1 58646U 23205B   25340.20999747  .00011162  00000+0  45783-3 0  9992", "line2": "2 58646  97.3590 359.7563 0006370 321.1327  38.9451 15.24395386108080"}}, "geometry": {"type": "Point", "coordinates": [70.68970326526552, -82.18690437493649]}}, {"type": "Feature", "properties": {"norad_id": 58647, "name": "TIANMU-1 13", "group": "weather", "lat": 82.35057508076657, "lon": -73.77433102724493, "alt_km": 488.87904537772374, "timestamp": "2025-12-06T18:50:09.814460+00:00", "meta": {"OBJECT_NAME": "TIANMU-1 13", "OBJECT_ID": "2023-205C", "EPOCH": "2025-12-06T05:50:54.598272", "MEAN_MOTION": 15.24403357, "ECCENTRICITY": 0.00062009, "INCLINATION": 97.3619, "RA_OF_ASC_NODE": 359.9875, "ARG_OF_PERICENTER": 296.869, "MEAN_ANOMALY": 63.1913, "EPHEMERIS_TYPE": 0, "CLASSIFICATION_TYPE": "U", "NORAD_CAT_ID": 58647, "ELEMENT_SET_NO": 999, "REV_AT_EPOCH": 10808, "BSTAR": 0.00042779463, "MEAN_MOTION_DOT": 0.00010427, "MEAN_MOTION_DDOT": 0}, "tle": {"line1": "1 58647U 23205C   25340.24368748  .00010427  00000+0  42779-3 0  9993", "line2": "2 58647  97.3619 359.9875 0006200 296.8690  63.1913 15.24403357108085"}}, "geometry": {"type": "Point", "coordinates": [-73.77433102724493, 82.35057508076657]}}, {"type": "Feature", "properties": {"norad_id": 58648, "name": "TIANMU-1 14", "group": "weather", "lat": 0.6429852645926442, "lon": 179.95654792677317, "alt_km": 498.0584095114973, "timestamp": "2025-12-06T18:50:09.814482+00:00", "meta": {"OBJECT_NAME": "TIANMU-1 14", "OBJECT_ID": "2023-205D", "EPOCH": "2025-12-06T05:26:54.212640", "MEAN_MOTION": 15.243869, "ECCENTRICITY": 0.00070934, "INCLINATION": 97.3551, "RA_OF_ASC_NODE": 359.326, "ARG_OF_PERICENTER": 301.457, "MEAN_ANOMALY": 58.5974, "EPHEMERIS_TYPE": 0, "CLASSIFICATION_TYPE": "U", "NORAD_CAT_ID": 58648, "ELEMENT_SET_NO": 999, "REV_AT_EPOCH": 10808, "BSTAR": 0.00043923085, "MEAN_MOTION_DOT": 0.00010704, "MEAN_MOTION_DDOT": 0}, "tle": {"line1": "1 58648U 23205D   25340.22701635  .00010704  00000+0  43923-3 0  9998", "line2": "2 58648  97.3551 359.3260 0007093 301.4570  58.5974 15.24386900108083"}}, "geometry": {"type": "Point", "coordinates": [179.95654792677317, 0.6429852645926442]}}, {"type": "Feature", "properties": {"norad_id": 58660, "name": "TIANMU-1 19", "group": "weather", "lat": 3.11176670450509, "lon": 91.42784639771213, "alt_km": 485.05694973189566, "timestamp": "2025-12-06T18:50:09.814494+00:00", "meta": {"OBJECT_NAME": "TIANMU-1 19", "OBJECT_ID": "2023-208A", "EPOCH": "2025-12-06T06:14:46.375008", "MEAN_MOTION": 15.27672812, "ECCENTRICITY": 0.0004078, "INCLINATION": 97.4398, "RA_OF_ASC_NODE": 91.3115, "ARG_OF_PERICENTER": 282.2195, "MEAN_ANOMALY": 77.8588, "EPHEMERIS_TYPE": 0, "CLASSIFICATION_TYPE": "U", "NORAD_CAT_ID": 58660, "ELEMENT_SET_NO": 999, "REV_AT_EPOCH": 10783, "BSTAR": 0.00060687036, "MEAN_MOTION_DOT": 0.00016361, "MEAN_MOTION_DDOT": 0}, "tle": {"line1": "1 58660U 23208A   25340.26025897  .00016361  00000+0  60687-3 0  9999", "line2": "2 58660  97.4398  91.3115 0004078 282.2195  77.8588 15.27672812107838"}}, "geometry": {"type": "Point", "coordinates": [91.42784639771213, 3.11176670450509]}}, {"type": "Feature", "properties": {"norad_id": 58661, "name": "TIANMU-1 20", "group": "weather", "lat": 51.33943674639767, "lon": 82.88404563604853, "alt_km": 476.6900964981369, "timestamp": "2025-12-06T18:50:09.814504+00:00", "meta": {"OBJECT_NAME": "TIANMU-1 20", "OBJECT_ID": "2023-208B", "EPOCH": "2025-12-06T06:02:35.639232", "MEAN_MOTION": 15.28863839, "ECCENTRICITY": 0.00063747, "INCLINATION": 97.4335, "RA_OF_ASC_NODE": 91.7444, "ARG_OF_PERICENTER": 293.2765, "MEAN_ANOMALY": 66.7803, "EPHEMERIS_TYPE": 0, "CLASSIFICATION_TYPE": "U", "NORAD_CAT_ID": 58661, "ELEMENT_SET_NO": 999, "REV_AT_EPOCH": 10790, "BSTAR": 0.0005556878, "MEAN_MOTION_DOT": 0.00015533, "MEAN_MOTION_DDOT": 0}, "tle": {"line1": "1 58661U 23208B   25340.25180138  .00015533  00000+0  55569-3 0  9992", "line2": "2 58661  97.4335  91.7444 0006374 293.2765  66.7803 15.28863839107902"}}, "geometry": {"type": "Point", "coordinates": [82.88404563604853, 51.33943674639767]}}]}